[{"OBJECT_NAME":"STARLINK-36182","OBJECT_ID":"2025-304A","EPOCH":"2026-03-20T22:00:01.999584","MEAN_MOTION":14.98326002,"ECCENTRICITY":0.00039581,"INCLINATION":70.0008,"RA_OF_ASC_NODE":146.1627,"ARG_OF_PERICENTER":269.4918,"MEAN_ANOMALY":184.9012,"EPHEMERIS_TYPE":0,"CLASSIFICATION_TYPE":"U","NORAD_CAT_ID":67192,"ELEMENT_SET_NO":999,"REV_AT_EPOCH":582,"BSTAR":-0.00032015818,"MEAN_MOTION_DOT":-3.911e-5,"MEAN_MOTION_DDOT":0},{"OBJECT_NAME":"STARLINK-36279","OBJECT_ID":"2025-304B","EPOCH":"2026-03-20T22:00:01.999584","MEAN_MOTION":14.98344911,"ECCENTRICITY":0.00032334,"INCLINATION":70.0001,"RA_OF_ASC_NODE":146.1321,"ARG_OF_PERICENTER":279.1725,"MEAN_ANOMALY":198.5661,"EPHEMERIS_TYPE":0,"CLASSIFICATION_TYPE":"U","NORAD_CAT_ID":67193,"ELEMENT_SET_NO":999,"REV_AT_EPOCH":582,"BSTAR":-0.00016982935,"MEAN_MOTION_DOT":-2.12e-5,"MEAN_MOTION_DDOT":0},{"OBJECT_NAME":"STARLINK-36284","OBJECT_ID":"2025-304C","EPOCH":"2026-03-20T13:57:59.333472","MEAN_MOTION":14.98345617,"ECCENTRICITY":0.0005307,"INCLINATION":70.0006,"RA_OF_ASC_NODE":147.1031,"ARG_OF_PERICENTER":282.369,"MEAN_ANOMALY":77.6875,"EPHEMERIS_TYPE":0,"CLASSIFICATION_TYPE":"U","NORAD_CAT_ID":67194,"ELEMENT_SET_NO":999,"REV_AT_EPOCH":1551,"BSTAR":0.00056916,"MEAN_MOTION_DOT":6.708e-5,"MEAN_MOTION_DDOT":0},{"OBJECT_NAME":"STARLINK-36291","OBJECT_ID":"2025-304D","EPOCH":"2026-03-20T14:22:15.786048","MEAN_MOTION":14.98344806,"ECCENTRICITY":0.0003743,"INCLINATION":70.0003,"RA_OF_ASC_NODE":147.1576,"ARG_OF_PERICENTER":272.8623,"MEAN_ANOMALY":87.2107,"EPHEMERIS_TYPE":0,"CLASSIFICATION_TYPE":"U","NORAD_CAT_ID":67195,"ELEMENT_SET_NO":999,"REV_AT_EPOCH":1551,"BSTAR":0.00018023,"MEAN_MOTION_DOT":2.059e-5,"MEAN_MOTION_DDOT":0},{"OBJECT_NAME":"STARLINK-36239","OBJECT_ID":"2025-304E","EPOCH":"2026-03-20T22:16:41.150784","MEAN_MOTION":14.98338938,"ECCENTRICITY":0.00032607,"INCLINATION":70.0013,"RA_OF_ASC_NODE":146.3056,"ARG_OF_PERICENTER":270.7238,"MEAN_ANOMALY":89.3547,"EPHEMERIS_TYPE":0,"CLASSIFICATION_TYPE":"U","NORAD_CAT_ID":67196,"ELEMENT_SET_NO":999,"REV_AT_EPOCH":1556,"BSTAR":0.00033994397,"MEAN_MOTION_DOT":3.966e-5,"MEAN_MOTION_DDOT":0},{"OBJECT_NAME":"STARLINK-36283","OBJECT_ID":"2025-304F","EPOCH":"2026-03-20T21:04:32.979072","MEAN_MOTION":14.98347298,"ECCENTRICITY":0.00037174,"INCLINATION":70.0004,"RA_OF_ASC_NODE":146.123,"ARG_OF_PERICENTER":274.723,"MEAN_ANOMALY":85.3505,"EPHEMERIS_TYPE":0,"CLASSIFICATION_TYPE":"U","NORAD_CAT_ID":67197,"ELEMENT_SET_NO":999,"REV_AT_EPOCH":1556,"BSTAR":0.00030562478,"MEAN_MOTION_DOT":3.557e-5,"MEAN_MOTION_DDOT":0},{"OBJECT_NAME":"STARLINK-36267","OBJECT_ID":"2025-304G","EPOCH":"2026-03-20T21:46:39.242496","MEAN_MOTION":14.98296787,"ECCENTRICITY":0.00030665,"INCLINATION":70.0029,"RA_OF_ASC_NODE":146.2288,"ARG_OF_PERICENTER":268.2644,"MEAN_ANOMALY":91.8164,"EPHEMERIS_TYPE":0,"CLASSIFICATION_TYPE":"U","NORAD_CAT_ID":67198,"ELEMENT_SET_NO":999,"REV_AT_EPOCH":1553,"BSTAR":-0.00082523471,"MEAN_MOTION_DOT":-9.917e-5,"MEAN_MOTION_DDOT":0},{"OBJECT_NAME":"STARLINK-36268","OBJECT_ID":"2025-304H","EPOCH":"2026-03-20T21:58:53.985504","MEAN_MOTION":14.98339748,"ECCENTRICITY":0.00032018,"INCLINATION":70.0005,"RA_OF_ASC_NODE":146.253,"ARG_OF_PERICENTER":269.7239,"MEAN_ANOMALY":90.3553,"EPHEMERIS_TYPE":0,"CLASSIFICATION_TYPE":"U","NORAD_CAT_ID":67199,"ELEMENT_SET_NO":999,"REV_AT_EPOCH":1555,"BSTAR":0.00055430033,"MEAN_MOTION_DOT":6.529e-5,"MEAN_MOTION_DDOT":0},{"OBJECT_NAME":"STARLINK-36270","OBJECT_ID":"2025-304J","EPOCH":"2026-03-20T21:22:51.736512","MEAN_MOTION":14.98270512,"ECCENTRICITY":0.00020648,"INCLINATION":70.0044,"RA_OF_ASC_NODE":146.1773,"ARG_OF_PERICENTER":247.9023,"MEAN_ANOMALY":112.1917,"EPHEMERIS_TYPE":0,"CLASSIFICATION_TYPE":"U","NORAD_CAT_ID":67200,"ELEMENT_SET_NO":999,"REV_AT_EPOCH":1556,"BSTAR":-0.0016219974,"MEAN_MOTION_DOT":-0.00019362,"MEAN_MOTION_DDOT":0},{"OBJECT_NAME":"STARLINK-36262","OBJECT_ID":"2025-304K","EPOCH":"2026-03-20T22:10:40.518912","MEAN_MOTION":14.98339063,"ECCENTRICITY":0.0003214,"INCLINATION":70.0011,"RA_OF_ASC_NODE":146.2891,"ARG_OF_PERICENTER":269.4195,"MEAN_ANOMALY":90.6596,"EPHEMERIS_TYPE":0,"CLASSIFICATION_TYPE":"U","NORAD_CAT_ID":67201,"ELEMENT_SET_NO":999,"REV_AT_EPOCH":1556,"BSTAR":0.00038575203,"MEAN_MOTION_DOT":4.514e-5,"MEAN_MOTION_DDOT":0},{"OBJECT_NAME":"STARLINK-36263","OBJECT_ID":"2025-304L","EPOCH":"2026-03-20T21:52:38.620704","MEAN_MOTION":14.98339482,"ECCENTRICITY":0.0003687,"INCLINATION":70.0004,"RA_OF_ASC_NODE":146.2447,"ARG_OF_PERICENTER":270.3558,"MEAN_ANOMALY":89.7178,"EPHEMERIS_TYPE":0,"CLASSIFICATION_TYPE":"U","NORAD_CAT_ID":67202,"ELEMENT_SET_NO":999,"REV_AT_EPOCH":1556,"BSTAR":0.00037298781,"MEAN_MOTION_DOT":4.361e-5,"MEAN_MOTION_DDOT":0},{"OBJECT_NAME":"STARLINK-36224","OBJECT_ID":"2025-304M","EPOCH":"2026-03-20T10:27:40.715424","MEAN_MOTION":14.98336311,"ECCENTRICITY":0.00038679,"INCLINATION":70.0005,"RA_OF_ASC_NODE":147.3916,"ARG_OF_PERICENTER":269.3492,"MEAN_ANOMALY":90.7224,"EPHEMERIS_TYPE":0,"CLASSIFICATION_TYPE":"U","NORAD_CAT_ID":67203,"ELEMENT_SET_NO":999,"REV_AT_EPOCH":1549,"BSTAR":0.0002154851,"MEAN_MOTION_DOT":2.479e-5,"MEAN_MOTION_DDOT":0},{"OBJECT_NAME":"STARLINK-36185","OBJECT_ID":"2025-304N","EPOCH":"2026-03-20T21:16:33.614688","MEAN_MOTION":14.9833475,"ECCENTRICITY":0.00034206,"INCLINATION":70.0007,"RA_OF_ASC_NODE":146.1542,"ARG_OF_PERICENTER":285.2611,"MEAN_ANOMALY":74.8169,"EPHEMERIS_TYPE":0,"CLASSIFICATION_TYPE":"U","NORAD_CAT_ID":67204,"ELEMENT_SET_NO":999,"REV_AT_EPOCH":1556,"BSTAR":-0.0001395177,"MEAN_MOTION_DOT":-1.758e-5,"MEAN_MOTION_DDOT":0},{"OBJECT_NAME":"STARLINK-36197","OBJECT_ID":"2025-304P","EPOCH":"2026-03-20T11:21:44.345952","MEAN_MOTION":14.98339704,"ECCENTRICITY":0.00038757,"INCLINATION":70.0001,"RA_OF_ASC_NODE":147.1191,"ARG_OF_PERICENTER":273.9062,"MEAN_ANOMALY":86.1654,"EPHEMERIS_TYPE":0,"CLASSIFICATION_TYPE":"U","NORAD_CAT_ID":67205,"ELEMENT_SET_NO":999,"REV_AT_EPOCH":1547,"BSTAR":0.00031328608,"MEAN_MOTION_DOT":3.648e-5,"MEAN_MOTION_DDOT":0},{"OBJECT_NAME":"STARLINK-36056","OBJECT_ID":"2025-304Q","EPOCH":"2026-03-20T14:10:14.713248","MEAN_MOTION":14.98353994,"ECCENTRICITY":0.0003366,"INCLINATION":70.001,"RA_OF_ASC_NODE":147.1257,"ARG_OF_PERICENTER":270.4893,"MEAN_ANOMALY":89.5881,"EPHEMERIS_TYPE":0,"CLASSIFICATION_TYPE":"U","NORAD_CAT_ID":67206,"ELEMENT_SET_NO":999,"REV_AT_EPOCH":1548,"BSTAR":0.00055546,"MEAN_MOTION_DOT":6.545e-5,"MEAN_MOTION_DDOT":0},{"OBJECT_NAME":"STARLINK-36225","OBJECT_ID":"2025-304R","EPOCH":"2026-03-20T21:46:51.278880","MEAN_MOTION":14.9832986,"ECCENTRICITY":0.00039091,"INCLINATION":70.0007,"RA_OF_ASC_NODE":146.2242,"ARG_OF_PERICENTER":269.8905,"MEAN_ANOMALY":90.1806,"EPHEMERIS_TYPE":0,"CLASSIFICATION_TYPE":"U","NORAD_CAT_ID":67207,"ELEMENT_SET_NO":999,"REV_AT_EPOCH":1556,"BSTAR":-0.00011118896,"MEAN_MOTION_DOT":-1.42e-5,"MEAN_MOTION_DDOT":0}]
