STARLINK-36182
1 67192U 25304A   26079.91668981 -.00003911  00000+0 -32016-3 0  9991
2 67192  70.0008 146.1627 0003958 269.4918 184.9012 14.98326002  5828
STARLINK-36279
1 67193U 25304B   26079.91668981 -.00002120  00000+0 -16983-3 0  9998
2 67193  70.0001 146.1321 0003233 279.1725 198.5661 14.98344911  5823
STARLINK-36284
1 67194U 25304C   26079.58193673  .00006708  00000+0  56916-3 0  9997
2 67194  70.0006 147.1031 0005307 282.3690  77.6875 14.98345617 15514
STARLINK-36291
1 67195U 25304D   26079.59879382  .00002059  00000+0  18023-3 0  9999
2 67195  70.0003 147.1576 0003743 272.8623  87.2107 14.98344806 15512
STARLINK-36239
1 67196U 25304E   26079.92825406  .00003966  00000+0  33994-3 0  9997
2 67196  70.0013 146.3056 0003260 270.7238  89.3547 14.98338938 15566
STARLINK-36283
1 67197U 25304F   26079.87815948  .00003557  00000+0  30562-3 0  9996
2 67197  70.0004 146.1230 0003717 274.7230  85.3505 14.98347298 15561
STARLINK-36267
1 67198U 25304G   26079.90739864 -.00009917  00000+0 -82523-3 0  9995
2 67198  70.0029 146.2288 0003066 268.2644  91.8164 14.98296787 15533
STARLINK-36268
1 67199U 25304H   26079.91590261  .00006529  00000+0  55430-3 0  9994
2 67199  70.0005 146.2530 0003201 269.7239  90.3553 14.98339748 15558
STARLINK-36270
1 67200U 25304J   26079.89087658 -.00019362  00000+0 -16220-2 0  9999
2 67200  70.0044 146.1773 0002064 247.9023 112.1917 14.98270512 15568
STARLINK-36262
1 67201U 25304K   26079.92408008  .00004514  00000+0  38575-3 0  9999
2 67201  70.0011 146.2891 0003214 269.4195  90.6596 14.98339063 15562
STARLINK-36263
1 67202U 25304L   26079.91155811  .00004361  00000+0  37299-3 0  9992
2 67202  70.0004 146.2447 0003687 270.3558  89.7178 14.98339482 15560
STARLINK-36224
1 67203U 25304M   26079.43588791  .00002479  00000+0  21549-3 0  9996
2 67203  70.0005 147.3916 0003867 269.3492  90.7224 14.98336311 15494
STARLINK-36185
1 67204U 25304N   26079.88650017 -.00001758  00000+0 -13952-3 0  9997
2 67204  70.0007 146.1542 0003420 285.2611  74.8169 14.98334750 15568
STARLINK-36197
1 67205U 25304P   26079.47342993  .00003648  00000+0  31329-3 0  9990
2 67205  70.0001 147.1191 0003875 273.9062  86.1654 14.98339704 15471
STARLINK-36056
1 67206U 25304Q   26079.59044807  .00006545  00000+0  55546-3 0  9993
2 67206  70.0010 147.1257 0003366 270.4893  89.5881 14.98353994 15481
STARLINK-36225
1 67207U 25304R   26079.90753795 -.00001420  00000+0 -11119-3 0  9999
2 67207  70.0007 146.2242 0003909 269.8905  90.1806 14.98329860 15560
